CCSDS_OMM_VERS = 2.0
CREATION_DATE  = 
ORIGINATOR     = 

OBJECT_NAME    = CZ-2C R/B
OBJECT_ID      = 2022-132E
CENTER_NAME    = EARTH
REF_FRAME      = TEME
TIME_SYSTEM    = UTC
MEAN_ELEMENT_THEORY = SGP/SGP4

EPOCH          = 2026-01-17T22:33:43.509024
MEAN_MOTION    = 15.57322058
ECCENTRICITY   = .00167803
INCLINATION    = 97.2942
RA_OF_ASC_NODE = 19.9004
ARG_OF_PERICENTER = 280.9101
MEAN_ANOMALY   = 79.0267

EPHEMERIS_TYPE = 0
CLASSIFICATION_TYPE = U
NORAD_CAT_ID   = 54039
ELEMENT_SET_NO = 999
REV_AT_EPOCH   = 18246
BSTAR          = .39852081E-3
MEAN_MOTION_DOT = .29245E-3
MEAN_MOTION_DDOT = 0

CCSDS_OMM_VERS = 2.0
CREATION_DATE  = 
ORIGINATOR     = 

OBJECT_NAME    = GSLV R/B
OBJECT_ID      = 2022-138AN
CENTER_NAME    = EARTH
REF_FRAME      = TEME
TIME_SYSTEM    = UTC
MEAN_ELEMENT_THEORY = SGP/SGP4

EPOCH          = 2026-01-17T23:17:37.532256
MEAN_MOTION    = 14.96346939
ECCENTRICITY   = .00209594
INCLINATION    = 87.3837
RA_OF_ASC_NODE = 183.3380
ARG_OF_PERICENTER = 341.9966
MEAN_ANOMALY   = 18.0520

EPHEMERIS_TYPE = 0
CLASSIFICATION_TYPE = U
NORAD_CAT_ID   = 54149
ELEMENT_SET_NO = 999
REV_AT_EPOCH   = 17634
BSTAR          = .18769975E-3
MEAN_MOTION_DOT = .216E-4
MEAN_MOTION_DDOT = 0

CCSDS_OMM_VERS = 2.0
CREATION_DATE  = 
ORIGINATOR     = 

OBJECT_NAME    = XRISM
OBJECT_ID      = 2023-137A
CENTER_NAME    = EARTH
REF_FRAME      = TEME
TIME_SYSTEM    = UTC
MEAN_ELEMENT_THEORY = SGP/SGP4

EPOCH          = 2026-01-17T23:29:38.099616
MEAN_MOTION    = 15.10789193
ECCENTRICITY   = .00080384
INCLINATION    = 31.0016
RA_OF_ASC_NODE = 251.4929
ARG_OF_PERICENTER = 251.7680
MEAN_ANOMALY   = 108.2083

EPHEMERIS_TYPE = 0
CLASSIFICATION_TYPE = U
NORAD_CAT_ID   = 57800
ELEMENT_SET_NO = 999
REV_AT_EPOCH   = 13011
BSTAR          = .27249346E-3
MEAN_MOTION_DOT = .4736E-4
MEAN_MOTION_DDOT = 0

CCSDS_OMM_VERS = 2.0
CREATION_DATE  = 
ORIGINATOR     = 

OBJECT_NAME    = ACS3
OBJECT_ID      = 2024-077B
CENTER_NAME    = EARTH
REF_FRAME      = TEME
TIME_SYSTEM    = UTC
MEAN_ELEMENT_THEORY = SGP/SGP4

EPOCH          = 2026-01-17T11:28:10.702560
MEAN_MOTION    = 13.87220174
ECCENTRICITY   = .00566154
INCLINATION    = 97.2374
RA_OF_ASC_NODE = 330.0948
ARG_OF_PERICENTER = 246.1757
MEAN_ANOMALY   = 113.3464

EPHEMERIS_TYPE = 0
CLASSIFICATION_TYPE = U
NORAD_CAT_ID   = 59588
ELEMENT_SET_NO = 999
REV_AT_EPOCH   = 8709
BSTAR          = .69289541E-2
MEAN_MOTION_DOT = .8221E-4
MEAN_MOTION_DDOT = 0

CCSDS_OMM_VERS = 2.0
CREATION_DATE  = 
ORIGINATOR     = 

OBJECT_NAME    = SZ-21 MODULE
OBJECT_ID      = 2025-246C
CENTER_NAME    = EARTH
REF_FRAME      = TEME
TIME_SYSTEM    = UTC
MEAN_ELEMENT_THEORY = SGP/SGP4

EPOCH          = 2026-01-17T10:28:28.446240
MEAN_MOTION    = 15.64628600
ECCENTRICITY   = .0002482
INCLINATION    = 41.4746
RA_OF_ASC_NODE = 157.9401
ARG_OF_PERICENTER = 190.6884
MEAN_ANOMALY   = 169.3904

EPHEMERIS_TYPE = 0
CLASSIFICATION_TYPE = U
NORAD_CAT_ID   = 66515
ELEMENT_SET_NO = 999
REV_AT_EPOCH   = 1003
BSTAR          = .32679476E-3
MEAN_MOTION_DOT = .32342E-3
MEAN_MOTION_DDOT = 0

