CZ-2C R/B               
1 54039U 22132E   26017.94008691  .00029245  00000+0  39852-3 0  9995
2 54039  97.2942  19.9004 0016780 280.9101  79.0267 15.57322058182462
GSLV R/B                
1 54149U 22138AN  26017.97057329  .00002160  00000+0  18770-3 0  9991
2 54149  87.3837 183.3380 0020959 341.9966  18.0520 14.96346939176341
XRISM                   
1 57800U 23137A   26017.97891319  .00004736  00000+0  27249-3 0  9995
2 57800  31.0016 251.4929 0008038 251.7680 108.2083 15.10789193130115
ACS3                    
1 59588U 24077B   26017.47790165  .00008221  00000+0  69290-2 0  9990
2 59588  97.2374 330.0948 0056615 246.1757 113.3464 13.87220174 87092
SZ-21 MODULE            
1 66515U 25246C   26017.43644035  .00032342  00000+0  32679-3 0  9990
2 66515  41.4746 157.9401 0002482 190.6884 169.3904 15.64628600 10034
